{
    "links": {
        "self": "http://www.neowsapp.com/rest/v1/neo/3339666?api_key=iIulBulltgU6a56xZRHN4H3l9WmuAYTsLGpBGhQ2"
    },
    "id": "3339666",
    "neo_reference_id": "3339666",
    "name": "(2006 QU89)",
    "designation": "2006 QU89",
    "nasa_jpl_url": "http://ssd.jpl.nasa.gov/sbdb.cgi?sstr=3339666",
    "absolute_magnitude_h": 21.6,
    "estimated_diameter": {
        "kilometers": {
            "estimated_diameter_min": 0.1272198785,
            "estimated_diameter_max": 0.2844722965
        },
        "meters": {
            "estimated_diameter_min": 127.2198785394,
            "estimated_diameter_max": 284.4722965033
        },
        "miles": {
            "estimated_diameter_min": 0.0790507431,
            "estimated_diameter_max": 0.1767628354
        },
        "feet": {
            "estimated_diameter_min": 417.3880663071,
            "estimated_diameter_max": 933.3080892598
        }
    },
    "is_potentially_hazardous_asteroid": false,
    "close_approach_data": [
        {
            "close_approach_date": "2004-03-27",
            "close_approach_date_full": "2004-Mar-27 03:07",
            "epoch_date_close_approach": 1080356820000,
            "relative_velocity": {
                "kilometers_per_second": "7.6132972794",
                "kilometers_per_hour": "27407.87020585",
                "miles_per_hour": "17030.1846842961"
            },
            "miss_distance": {
                "astronomical": "0.2964484756",
                "lunar": "115.3184570084",
                "kilometers": "44348060.514506972",
                "miles": "27556606.9868693336"
            },
            "orbiting_body": "Earth"
        },
        {
            "close_approach_date": "2006-08-13",
            "close_approach_date_full": "2006-Aug-13 04:26",
            "epoch_date_close_approach": 1155443160000,
            "relative_velocity": {
                "kilometers_per_second": "7.9900696875",
                "kilometers_per_hour": "28764.2508749045",
                "miles_per_hour": "17872.9868839094"
            },
            "miss_distance": {
                "astronomical": "0.4289035819",
                "lunar": "166.8434933591",
                "kilometers": "64163062.287610553",
                "miles": "39869078.1518015114"
            },
            "orbiting_body": "Earth"
        },
        {
            "close_approach_date": "2023-04-13",
            "close_approach_date_full": "2023-Apr-13 19:34",
            "epoch_date_close_approach": 1681414440000,
            "relative_velocity": {
                "kilometers_per_second": "12.1146790357",
                "kilometers_per_hour": "43612.8445284966",
                "miles_per_hour": "27099.3255349428"
            },
            "miss_distance": {
                "astronomical": "0.3631066466",
                "lunar": "141.2484855274",
                "kilometers": "54319980.914202742",
                "miles": "33752870.9986601596"
            },
            "orbiting_body": "Earth"
        }
    ],
    "orbital_data": {
        "orbit_id": "10",
        "orbit_determination_date": "2017-04-06 09:08:13",
        "first_observation_date": "2006-08-29",
        "last_observation_date": "2006-09-24",
        "data_arc_in_days": 26,
        "observations_used": 19,
        "orbit_uncertainty": "7",
        "minimum_orbit_intersection": ".241961",
        "jupiter_tisserand_invariant": "4.410",
        "epoch_osculation": "2459000.5",
        "eccentricity": ".2740880488261658",
        "semi_major_axis": "1.529867623816668",
        "inclination": "14.773784543104",
        "ascending_node_longitude": "162.2073129709743",
        "orbital_period": "691.1609735103769",
        "perihelion_distance": "1.110549191842434",
        "perihelion_argument": "79.34023582525573",
        "aphelion_distance": "1.949186055790901",
        "perihelion_time": "2458690.894636389713",
        "mean_anomaly": "161.2618987059024",
        "mean_motion": ".5208627422517441",
        "equinox": "J2000",
        "orbit_class": {
            "orbit_class_type": "AMO",
            "orbit_class_description": "Near-Earth asteroid orbits similar to that of 1221 Amor",
            "orbit_class_range": "1.017 AU < q (perihelion) < 1.3 AU"
        }
    },
    "is_sentry_object": false
}